MOLNIYA 1-91
1 25485U 98054A   26087.02259012 -.00000020  00000-0  00000-0 0  9997
2 25485  64.6519 296.9378 6698706 284.2479  14.4299  2.36441079211659